INTELSAT 902 (IS-902)   
1 26900U 01039A   26173.52086353 -.00000284  00000+0  00000+0 0  9994
2 26900   6.1299  71.7183 0004236  16.9128 319.4692  1.00270083 90740
INTELSAT 904 (IS-904)   
1 27380U 02007A   26173.45322231 -.00000227  00000+0  00000+0 0  9990
2 27380   6.9338  69.1239 0006431   7.1690 325.9880  1.00272928 51819
DIRECTV 5 (TEMPO 1)     
1 27426U 02023A   26173.72278431 -.00000057  00000+0  00000+0 0  9992
2 27426   4.8927  75.2450 0003379  19.3201 326.4273  1.00272484 88173
INTELSAT 905 (IS-905)   
1 27438U 02027A   26173.78871025  .00000093  00000+0  00000+0 0  9992
2 27438   6.7682  69.7349 0004070  24.2259 323.7262  1.00272620 51414
GALAXY 3C (G-3C)        
1 27445U 02030A   26173.58322748 -.00000152  00000+0  00000+0 0  9992
2 27445   3.7470  77.9094 0001793  26.8189 281.1480  1.00271935 46546
INTELSAT 906 (IS-906)   
1 27513U 02041A   26173.82856228  .00000013  00000+0  00000+0 0  9997
2 27513   5.8162  72.8521 0004338   3.6531 196.9257  1.00271326 87087
GALAXY 13 (HORIZONS-1)  
1 27954U 03044A   26173.73447288  .00000135  00000+0  00000+0 0  9997
2 27954   1.4329  83.7926 0002138   1.6970 299.8325  1.00273511 46626
INTELSAT 10-02          
1 28358U 04022A   26173.38797669 -.00000009  00000+0  00000+0 0  9996
2 28358   0.0201 295.2216 0000172 192.5285 281.4846  1.00271869 80601
DIRECTV 8               
1 28659U 05019A   26173.68239051  .00000004  00000+0  00000+0 0  9990
2 28659   0.0178  34.1033 0003106  62.7225 300.6414  1.00272458 77120
GALAXY 28 (G-28)        
1 28702U 05022A   26173.09142267 -.00000201  00000+0  00000+0 0  9990
2 28702   3.3105  78.8739 0002789  14.8274 182.4033  1.00270607 52020
GALAXY 16 (G-16)        
1 29236U 06023A   26173.65375047 -.00000124  00000+0  00000+0 0  9995
2 29236   0.0408 156.7444 0002724 295.3004 315.1330  1.00271729 73022
DIRECTV 9S              
1 29494U 06043A   26173.65331714 -.00000112  00000+0  00000+0 0  9993
2 29494   2.4357  80.8443 0005216  15.8344 308.1447  1.00271538 51434
GALAXY 17 (G-17)        
1 31307U 07016B   26173.58513416 -.00000205  00000+0  00000+0 0  9996
2 31307   2.9864  79.8385 0004487  16.3469 300.2203  1.00273968 69851
INTELSAT 11 (IS-11)     
1 32253U 07044B   26173.83588225 -.00000085  00000+0  00000+0 0  9992
2 32253   3.5809  78.6071 0002714  85.1003 149.2391  0.99048639 68508
HORIZONS-2              
1 32388U 07063B   26173.80109385 -.00000251  00000+0  00000+0 0  9990
2 32388   2.6174  80.5632 0004044   2.3944  42.6107  1.00272323 67872
DIRECTV 11              
1 32729U 08013A   26173.65366381 -.00000123  00000+0  00000+0 0  9997
2 32729   0.0374 183.5738 0000333 254.1692 329.2283  1.00271880 45647
GALAXY 18 (G-18)        
1 32951U 08024A   26173.68239051  .00000028  00000+0  00000+0 0  9995
2 32951   0.0168 317.3415 0002953 135.8802 300.2983  1.00273153 45902
GALAXY 19 (G-19)        
1 33376U 08045A   26173.58279414 -.00000137  00000+0  00000+0 0  9998
2 33376   0.0495 260.3338 0002678 198.8202 284.4136  1.00271887 64956
FM-5                    
1 35493U 09034A   26173.29945806 -.00000199  00000+0  00000+0 0  9990
2 35493   0.0247 286.0015 0000823  43.5796 322.5457  1.00270518 46695
INTELSAT 14 (IS-14)     
1 36097U 09064A   26173.80698720 -.00000270  00000+0  00000+0 0  9991
2 36097   0.0165   0.6211 0002543  91.3670  64.5123  1.00271004 60663
INTELSAT 15 (IS-15)     
1 36106U 09067A   26173.79766740 -.00000182  00000+0  00000+0 0  9993
2 36106   0.0172   6.8032 0002343  86.8995 189.5811  1.00271993 41284
DIRECTV 12              
1 36131U 09075A   26173.85044781  .00000000  00000+0  00000+0 0  9999
2 36131   0.0096  91.9292 0000380   8.2212  14.3136  1.00268920 46612
INTELSAT 16 (IS-16)     
1 36397U 10006A   26173.80083384 -.00000242  00000+0  00000+0 0  9995
2 36397   0.0090 346.1883 0002228 120.6181  16.2665  1.00271634 59717
XM-5                    
1 37185U 10053A   26173.43666890 -.00000021  00000+0  00000+0 0  9996
2 37185   0.0649 271.2570 0002629 286.7800 114.5883  1.00271419 57534
INTELSAT 17 (IS-17)     
1 37238U 10065B   26173.83397451  .00000001  00000+0  00000+0 0  9993
2 37238   0.0008  47.5685 0002612  58.9951 170.6820  1.00272623 53304
INTELSAT 28 (IS-28)     
1 37392U 11016A   26173.80958721 -.00000223  00000+0  00000+0 0  9998
2 37392   1.8216  82.5622 0003866   9.5807  78.5681  1.00270992 53341
INTELSAT 18 (IS-18)     
1 37834U 11056A   26173.77197448  .00000056  00000+0  00000+0 0  9993
2 37834   0.0270 278.9191 0001887 174.1678 275.7572  1.00271629 53866
INTELSAT 22 (IS-22)     
1 38098U 12011A   26173.83020896 -.00000056  00000+0  00000+0 0  9998
2 38098   0.0241  62.0263 0001500  37.6858 182.2838  1.00272622  7246
INTELSAT 19 (IS-19)     
1 38356U 12030A   26173.77748009 -.00000053  00000+0  00000+0 0  9999
2 38356   0.0170 358.9921 0003197 100.2310 257.6225  1.00272914 50504
INTELSAT 20 (IS-20)     
1 38740U 12043A   26173.47299564 -.00000022  00000+0  00000+0 0  9990
2 38740   0.0056  44.4069 0001249 142.7135 322.3051  1.00267817 50802
INTELSAT 21 (IS-21)     
1 38749U 12045A   26173.51921686 -.00000283  00000+0  00000+0 0  9992
2 38749   0.0127  51.2621 0001602  52.9298 295.4278  1.00271706 50572
