OBJECT_NAME,OBJECT_ID,EPOCH,MEAN_MOTION,ECCENTRICITY,INCLINATION,RA_OF_ASC_NODE,ARG_OF_PERICENTER,MEAN_ANOMALY,EPHEMERIS_TYPE,CLASSIFICATION_TYPE,NORAD_CAT_ID,ELEMENT_SET_NO,REV_AT_EPOCH,BSTAR,MEAN_MOTION_DOT,MEAN_MOTION_DDOT
INTELSAT 902 (IS-902),2001-039A,2026-06-22T12:30:02.608992,1.00270083,.00042369,6.1299,71.7183,16.9128,319.4692,0,U,26900,999,9074,0,-.284E-5,0
INTELSAT 904 (IS-904),2002-007A,2026-06-22T10:52:38.407584,1.00272928,.00064317,6.9338,69.1239,7.1690,325.9880,0,U,27380,999,5181,0,-.227E-5,0
DIRECTV 5 (TEMPO 1),2002-023A,2026-06-22T17:20:48.564384,1.00272484,.0003379,4.8927,75.2450,19.3201,326.4273,0,U,27426,999,8817,0,-.57E-6,0
INTELSAT 905 (IS-905),2002-027A,2026-06-22T18:55:44.565600,1.00272620,.00040705,6.7682,69.7349,24.2259,323.7262,0,U,27438,999,5141,0,.93E-6,0
GALAXY 3C (G-3C),2002-030A,2026-06-22T13:59:50.854272,1.00271935,.0001793,3.7470,77.9094,26.8189,281.1480,0,U,27445,999,4654,0,-.152E-5,0
INTELSAT 906 (IS-906),2002-041A,2026-06-22T19:53:07.780992,1.00271326,.00043385,5.8162,72.8521,3.6531,196.9257,0,U,27513,999,8708,0,.13E-6,0
GALAXY 13 (HORIZONS-1),2003-044A,2026-06-22T17:37:38.456832,1.00273511,.00021382,1.4329,83.7926,1.6970,299.8325,0,U,27954,999,4662,0,.135E-5,0
INTELSAT 10-02,2004-022A,2026-06-22T09:18:41.186016,1.00271869,.00001723,0.0201,295.2216,192.5285,281.4846,0,U,28358,999,8060,0,-.9E-7,0
DIRECTV 8,2005-019A,2026-06-22T16:22:38.540064,1.00272458,.00031065,0.0178,34.1033,62.7225,300.6414,0,U,28659,999,7712,0,.4E-7,0
GALAXY 28 (G-28),2005-022A,2026-06-22T02:11:38.918688,1.00270607,.00027895,3.3105,78.8739,14.8274,182.4033,0,U,28702,999,5202,0,-.201E-5,0
GALAXY 16 (G-16),2006-023A,2026-06-22T15:41:24.040608,1.00271729,.0002724,0.0408,156.7444,295.3004,315.1330,0,U,29236,999,7302,0,-.124E-5,0
DIRECTV 9S,2006-043A,2026-06-22T15:40:46.600896,1.00271538,.00052161,2.4357,80.8443,15.8344,308.1447,0,U,29494,999,5143,0,-.112E-5,0
GALAXY 17 (G-17),2007-016B,2026-06-22T14:02:35.591424,1.00273968,.0004487,2.9864,79.8385,16.3469,300.2203,0,U,31307,999,6985,0,-.205E-5,0
INTELSAT 11 (IS-11),2007-044B,2026-06-22T20:03:40.226400,0.99048639,.00027145,3.5809,78.6071,85.1003,149.2391,0,U,32253,999,6850,0,-.85E-6,0
HORIZONS-2,2007-063B,2026-06-22T19:13:34.508640,1.00272323,.00040444,2.6174,80.5632,2.3944,42.6107,0,U,32388,999,6787,0,-.251E-5,0
DIRECTV 11,2008-013A,2026-06-22T15:41:16.553184,1.00271880,.00003331,0.0374,183.5738,254.1692,329.2283,0,U,32729,999,4564,0,-.123E-5,0
GALAXY 18 (G-18),2008-024A,2026-06-22T16:22:38.540064,1.00273153,.00029537,0.0168,317.3415,135.8802,300.2983,0,U,32951,999,4590,0,.28E-6,0
GALAXY 19 (G-19),2008-045A,2026-06-22T13:59:13.413696,1.00271887,.00026786,0.0495,260.3338,198.8202,284.4136,0,U,33376,999,6495,0,-.137E-5,0
FM-5,2009-034A,2026-06-22T07:11:13.176384,1.00270518,.00008233,0.0247,286.0015,43.5796,322.5457,0,U,35493,999,4669,0,-.199E-5,0
INTELSAT 14 (IS-14),2009-064A,2026-06-22T19:22:03.694080,1.00271004,.00025437,0.0165,0.6211,91.3670,64.5123,0,U,36097,999,6066,0,-.27E-5,0
INTELSAT 15 (IS-15),2009-067A,2026-06-22T19:08:38.463360,1.00271993,.00023438,0.0172,6.8032,86.8995,189.5811,0,U,36106,999,4128,0,-.182E-5,0
DIRECTV 12,2009-075A,2026-06-22T20:24:38.690784,1.00268920,.00003808,0.0096,91.9292,8.2212,14.3136,0,U,36131,999,4661,0,0,0
INTELSAT 16 (IS-16),2010-006A,2026-06-22T19:13:12.043776,1.00271634,.00022284,0.0090,346.1883,120.6181,16.2665,0,U,36397,999,5971,0,-.242E-5,0
XM-5,2010-053A,2026-06-22T10:28:48.192960,1.00271419,.00026294,0.0649,271.2570,286.7800,114.5883,0,U,37185,999,5753,0,-.21E-6,0
INTELSAT 17 (IS-17),2010-065B,2026-06-22T20:00:55.397664,1.00272623,.00026128,0.0008,47.5685,58.9951,170.6820,0,U,37238,999,5330,0,.1E-7,0
INTELSAT 28 (IS-28),2011-016A,2026-06-22T19:25:48.334944,1.00270992,.00038666,1.8216,82.5622,9.5807,78.5681,0,U,37392,999,5334,0,-.223E-5,0
INTELSAT 18 (IS-18),2011-056A,2026-06-22T18:31:38.595072,1.00271629,.00018876,0.0270,278.9191,174.1678,275.7572,0,U,37834,999,5386,0,.56E-6,0
INTELSAT 22 (IS-22),2012-011A,2026-06-22T19:55:30.054144,1.00272622,.00015009,0.0241,62.0263,37.6858,182.2838,0,U,38098,999,724,0,-.56E-6,0
INTELSAT 19 (IS-19),2012-030A,2026-06-22T18:39:34.279776,1.00272914,.00031973,0.0170,358.9921,100.2310,257.6225,0,U,38356,999,5050,0,-.53E-6,0
INTELSAT 20 (IS-20),2012-043A,2026-06-22T11:21:06.823296,1.00267817,.00012495,0.0056,44.4069,142.7135,322.3051,0,U,38740,999,5080,0,-.22E-6,0
INTELSAT 21 (IS-21),2012-045A,2026-06-22T12:27:40.336704,1.00271706,.00016023,0.0127,51.2621,52.9298,295.4278,0,U,38749,999,5057,0,-.283E-5,0
